QIANFAN-81              
1 63167U 25046J   25244.28079334  .00000237  00000+0  34893-3 0  9994
2 63167  88.9858 330.4464 0016153  63.5256 296.7550 13.50970400 33658
QIANFAN-82              
1 63168U 25046K   25244.23957358  .00000247  00000+0  36306-3 0  9993
2 63168  88.9858 330.4942 0014527  71.5143 288.7586 13.50967358 33633
QIANFAN-83              
1 63169U 25046L   25244.28503527  .00000297  00000+0  36952-3 0  9996
2 63169  88.9858 330.4666 0015576  62.7068 297.5673 13.61943796 33659
QIANFAN-84              
1 63170U 25046M   25244.26828866  .00000239  00000+0  35051-3 0  9997
2 63170  88.9858 330.6243 0017374  67.0562 293.2421 13.50973560 33563
QIANFAN-85              
1 63171U 25046N   25244.26436085  .00000242  00000+0  35595-3 0  9993
2 63171  88.9857 330.4968 0014835  70.3605 289.9146 13.50968335 33637
QIANFAN-86              
1 63172U 25046P   25244.27257971  .00000244  00000+0  35992-3 0  9993
2 63172  88.9860 330.3557 0012833  75.1392 285.1180 13.50968878 33714
QIANFAN-87              
1 63173U 25046Q   25244.24373235  .00000236  00000+0  34671-3 0  9997
2 63173  88.9856 330.4742 0013418  70.3233 289.9364 13.50965412 33647
QIANFAN-88              
1 63174U 25046R   25244.26024001  .00000239  00000+0  35127-3 0  9994
2 63174  88.9858 330.4245 0013983  77.1436 283.1276 13.50972757 33676
