<?xml version="1.0" encoding="UTF-8"?>
<ndm xmlns:xsi="http://www.w3.org/2001/XMLSchema-instance" xsi:noNamespaceSchemaLocation="https://sanaregistry.org/r/ndmxml_unqualified/ndmxml-2.0.0-master-2.0.xsd">
<omm id="CCSDS_OMM_VERS" version="2.0">
<header><CREATION_DATE/><ORIGINATOR/></header><body><segment><metadata><OBJECT_NAME>QIANFAN-81</OBJECT_NAME><OBJECT_ID>2025-046J</OBJECT_ID><CENTER_NAME>EARTH</CENTER_NAME><REF_FRAME>TEME</REF_FRAME><TIME_SYSTEM>UTC</TIME_SYSTEM><MEAN_ELEMENT_THEORY>SGP4</MEAN_ELEMENT_THEORY></metadata><data><meanElements><EPOCH>2025-09-01T06:44:20.544576</EPOCH><MEAN_MOTION>13.50970400</MEAN_MOTION><ECCENTRICITY>.00161532</ECCENTRICITY><INCLINATION>88.9858</INCLINATION><RA_OF_ASC_NODE>330.4464</RA_OF_ASC_NODE><ARG_OF_PERICENTER>63.5256</ARG_OF_PERICENTER><MEAN_ANOMALY>296.7550</MEAN_ANOMALY></meanElements><tleParameters><EPHEMERIS_TYPE>0</EPHEMERIS_TYPE><CLASSIFICATION_TYPE>U</CLASSIFICATION_TYPE><NORAD_CAT_ID>63167</NORAD_CAT_ID><ELEMENT_SET_NO>999</ELEMENT_SET_NO><REV_AT_EPOCH>3365</REV_AT_EPOCH><BSTAR>.34893134E-3</BSTAR><MEAN_MOTION_DOT>.237E-5</MEAN_MOTION_DOT><MEAN_MOTION_DDOT>0</MEAN_MOTION_DDOT></tleParameters></data></segment></body></omm>
<omm id="CCSDS_OMM_VERS" version="2.0">
<header><CREATION_DATE/><ORIGINATOR/></header><body><segment><metadata><OBJECT_NAME>QIANFAN-82</OBJECT_NAME><OBJECT_ID>2025-046K</OBJECT_ID><CENTER_NAME>EARTH</CENTER_NAME><REF_FRAME>TEME</REF_FRAME><TIME_SYSTEM>UTC</TIME_SYSTEM><MEAN_ELEMENT_THEORY>SGP4</MEAN_ELEMENT_THEORY></metadata><data><meanElements><EPOCH>2025-09-01T05:44:59.157312</EPOCH><MEAN_MOTION>13.50967358</MEAN_MOTION><ECCENTRICITY>.00145279</ECCENTRICITY><INCLINATION>88.9858</INCLINATION><RA_OF_ASC_NODE>330.4942</RA_OF_ASC_NODE><ARG_OF_PERICENTER>71.5143</ARG_OF_PERICENTER><MEAN_ANOMALY>288.7586</MEAN_ANOMALY></meanElements><tleParameters><EPHEMERIS_TYPE>0</EPHEMERIS_TYPE><CLASSIFICATION_TYPE>U</CLASSIFICATION_TYPE><NORAD_CAT_ID>63168</NORAD_CAT_ID><ELEMENT_SET_NO>999</ELEMENT_SET_NO><REV_AT_EPOCH>3363</REV_AT_EPOCH><BSTAR>.36306098E-3</BSTAR><MEAN_MOTION_DOT>.247E-5</MEAN_MOTION_DOT><MEAN_MOTION_DDOT>0</MEAN_MOTION_DDOT></tleParameters></data></segment></body></omm>
<omm id="CCSDS_OMM_VERS" version="2.0">
<header><CREATION_DATE/><ORIGINATOR/></header><body><segment><metadata><OBJECT_NAME>QIANFAN-83</OBJECT_NAME><OBJECT_ID>2025-046L</OBJECT_ID><CENTER_NAME>EARTH</CENTER_NAME><REF_FRAME>TEME</REF_FRAME><TIME_SYSTEM>UTC</TIME_SYSTEM><MEAN_ELEMENT_THEORY>SGP4</MEAN_ELEMENT_THEORY></metadata><data><meanElements><EPOCH>2025-09-01T06:50:27.047328</EPOCH><MEAN_MOTION>13.61943796</MEAN_MOTION><ECCENTRICITY>.00155766</ECCENTRICITY><INCLINATION>88.9858</INCLINATION><RA_OF_ASC_NODE>330.4666</RA_OF_ASC_NODE><ARG_OF_PERICENTER>62.7068</ARG_OF_PERICENTER><MEAN_ANOMALY>297.5673</MEAN_ANOMALY></meanElements><tleParameters><EPHEMERIS_TYPE>0</EPHEMERIS_TYPE><CLASSIFICATION_TYPE>U</CLASSIFICATION_TYPE><NORAD_CAT_ID>63169</NORAD_CAT_ID><ELEMENT_SET_NO>999</ELEMENT_SET_NO><REV_AT_EPOCH>3365</REV_AT_EPOCH><BSTAR>.36951646E-3</BSTAR><MEAN_MOTION_DOT>.297E-5</MEAN_MOTION_DOT><MEAN_MOTION_DDOT>0</MEAN_MOTION_DDOT></tleParameters></data></segment></body></omm>
<omm id="CCSDS_OMM_VERS" version="2.0">
<header><CREATION_DATE/><ORIGINATOR/></header><body><segment><metadata><OBJECT_NAME>QIANFAN-84</OBJECT_NAME><OBJECT_ID>2025-046M</OBJECT_ID><CENTER_NAME>EARTH</CENTER_NAME><REF_FRAME>TEME</REF_FRAME><TIME_SYSTEM>UTC</TIME_SYSTEM><MEAN_ELEMENT_THEORY>SGP4</MEAN_ELEMENT_THEORY></metadata><data><meanElements><EPOCH>2025-09-01T06:26:20.140224</EPOCH><MEAN_MOTION>13.50973560</MEAN_MOTION><ECCENTRICITY>.00173747</ECCENTRICITY><INCLINATION>88.9858</INCLINATION><RA_OF_ASC_NODE>330.6243</RA_OF_ASC_NODE><ARG_OF_PERICENTER>67.0562</ARG_OF_PERICENTER><MEAN_ANOMALY>293.2421</MEAN_ANOMALY></meanElements><tleParameters><EPHEMERIS_TYPE>0</EPHEMERIS_TYPE><CLASSIFICATION_TYPE>U</CLASSIFICATION_TYPE><NORAD_CAT_ID>63170</NORAD_CAT_ID><ELEMENT_SET_NO>999</ELEMENT_SET_NO><REV_AT_EPOCH>3356</REV_AT_EPOCH><BSTAR>.35051235E-3</BSTAR><MEAN_MOTION_DOT>.239E-5</MEAN_MOTION_DOT><MEAN_MOTION_DDOT>0</MEAN_MOTION_DDOT></tleParameters></data></segment></body></omm>
<omm id="CCSDS_OMM_VERS" version="2.0">
<header><CREATION_DATE/><ORIGINATOR/></header><body><segment><metadata><OBJECT_NAME>QIANFAN-85</OBJECT_NAME><OBJECT_ID>2025-046N</OBJECT_ID><CENTER_NAME>EARTH</CENTER_NAME><REF_FRAME>TEME</REF_FRAME><TIME_SYSTEM>UTC</TIME_SYSTEM><MEAN_ELEMENT_THEORY>SGP4</MEAN_ELEMENT_THEORY></metadata><data><meanElements><EPOCH>2025-09-01T06:20:40.777440</EPOCH><MEAN_MOTION>13.50968335</MEAN_MOTION><ECCENTRICITY>.00148358</ECCENTRICITY><INCLINATION>88.9857</INCLINATION><RA_OF_ASC_NODE>330.4968</RA_OF_ASC_NODE><ARG_OF_PERICENTER>70.3605</ARG_OF_PERICENTER><MEAN_ANOMALY>289.9146</MEAN_ANOMALY></meanElements><tleParameters><EPHEMERIS_TYPE>0</EPHEMERIS_TYPE><CLASSIFICATION_TYPE>U</CLASSIFICATION_TYPE><NORAD_CAT_ID>63171</NORAD_CAT_ID><ELEMENT_SET_NO>999</ELEMENT_SET_NO><REV_AT_EPOCH>3363</REV_AT_EPOCH><BSTAR>.35595274E-3</BSTAR><MEAN_MOTION_DOT>.242E-5</MEAN_MOTION_DOT><MEAN_MOTION_DDOT>0</MEAN_MOTION_DDOT></tleParameters></data></segment></body></omm>
<omm id="CCSDS_OMM_VERS" version="2.0">
<header><CREATION_DATE/><ORIGINATOR/></header><body><segment><metadata><OBJECT_NAME>QIANFAN-86</OBJECT_NAME><OBJECT_ID>2025-046P</OBJECT_ID><CENTER_NAME>EARTH</CENTER_NAME><REF_FRAME>TEME</REF_FRAME><TIME_SYSTEM>UTC</TIME_SYSTEM><MEAN_ELEMENT_THEORY>SGP4</MEAN_ELEMENT_THEORY></metadata><data><meanElements><EPOCH>2025-09-01T06:32:30.886944</EPOCH><MEAN_MOTION>13.50968878</MEAN_MOTION><ECCENTRICITY>.00128333</ECCENTRICITY><INCLINATION>88.9860</INCLINATION><RA_OF_ASC_NODE>330.3557</RA_OF_ASC_NODE><ARG_OF_PERICENTER>75.1392</ARG_OF_PERICENTER><MEAN_ANOMALY>285.1180</MEAN_ANOMALY></meanElements><tleParameters><EPHEMERIS_TYPE>0</EPHEMERIS_TYPE><CLASSIFICATION_TYPE>U</CLASSIFICATION_TYPE><NORAD_CAT_ID>63172</NORAD_CAT_ID><ELEMENT_SET_NO>999</ELEMENT_SET_NO><REV_AT_EPOCH>3371</REV_AT_EPOCH><BSTAR>.35992131E-3</BSTAR><MEAN_MOTION_DOT>.244E-5</MEAN_MOTION_DOT><MEAN_MOTION_DDOT>0</MEAN_MOTION_DDOT></tleParameters></data></segment></body></omm>
<omm id="CCSDS_OMM_VERS" version="2.0">
<header><CREATION_DATE/><ORIGINATOR/></header><body><segment><metadata><OBJECT_NAME>QIANFAN-87</OBJECT_NAME><OBJECT_ID>2025-046Q</OBJECT_ID><CENTER_NAME>EARTH</CENTER_NAME><REF_FRAME>TEME</REF_FRAME><TIME_SYSTEM>UTC</TIME_SYSTEM><MEAN_ELEMENT_THEORY>SGP4</MEAN_ELEMENT_THEORY></metadata><data><meanElements><EPOCH>2025-09-01T05:50:58.475040</EPOCH><MEAN_MOTION>13.50965412</MEAN_MOTION><ECCENTRICITY>.00134189</ECCENTRICITY><INCLINATION>88.9856</INCLINATION><RA_OF_ASC_NODE>330.4742</RA_OF_ASC_NODE><ARG_OF_PERICENTER>70.3233</ARG_OF_PERICENTER><MEAN_ANOMALY>289.9364</MEAN_ANOMALY></meanElements><tleParameters><EPHEMERIS_TYPE>0</EPHEMERIS_TYPE><CLASSIFICATION_TYPE>U</CLASSIFICATION_TYPE><NORAD_CAT_ID>63173</NORAD_CAT_ID><ELEMENT_SET_NO>999</ELEMENT_SET_NO><REV_AT_EPOCH>3364</REV_AT_EPOCH><BSTAR>.34670937E-3</BSTAR><MEAN_MOTION_DOT>.236E-5</MEAN_MOTION_DOT><MEAN_MOTION_DDOT>0</MEAN_MOTION_DDOT></tleParameters></data></segment></body></omm>
<omm id="CCSDS_OMM_VERS" version="2.0">
<header><CREATION_DATE/><ORIGINATOR/></header><body><segment><metadata><OBJECT_NAME>QIANFAN-88</OBJECT_NAME><OBJECT_ID>2025-046R</OBJECT_ID><CENTER_NAME>EARTH</CENTER_NAME><REF_FRAME>TEME</REF_FRAME><TIME_SYSTEM>UTC</TIME_SYSTEM><MEAN_ELEMENT_THEORY>SGP4</MEAN_ELEMENT_THEORY></metadata><data><meanElements><EPOCH>2025-09-01T06:14:44.736864</EPOCH><MEAN_MOTION>13.50972757</MEAN_MOTION><ECCENTRICITY>.00139834</ECCENTRICITY><INCLINATION>88.9858</INCLINATION><RA_OF_ASC_NODE>330.4245</RA_OF_ASC_NODE><ARG_OF_PERICENTER>77.1436</ARG_OF_PERICENTER><MEAN_ANOMALY>283.1276</MEAN_ANOMALY></meanElements><tleParameters><EPHEMERIS_TYPE>0</EPHEMERIS_TYPE><CLASSIFICATION_TYPE>U</CLASSIFICATION_TYPE><NORAD_CAT_ID>63174</NORAD_CAT_ID><ELEMENT_SET_NO>999</ELEMENT_SET_NO><REV_AT_EPOCH>3367</REV_AT_EPOCH><BSTAR>.35126804E-3</BSTAR><MEAN_MOTION_DOT>.239E-5</MEAN_MOTION_DOT><MEAN_MOTION_DDOT>0</MEAN_MOTION_DDOT></tleParameters></data></segment></body></omm>

</ndm>
